1 39574U 14009C   06001.00000000  .00000000  00000-0  00000-0 0 00002
2 39574 065.4877 129.5290 0014894 015.4715 320.6048 15.40627074000003

